{
  "type": "FeatureCollection",
  "features": [
    {
      "type": "Feature",
      "properties": {
        "norad_id": 64751,
        "name": "PROGRESS-MS 31",
        "group": "stations",
        "lat": 50.46699767162851,
        "lon": -133.29022788717694,
        "alt_km": 413.3080681878073,
        "timestamp": "2025-12-10T14:53:35.962018+00:00",
        "meta_object_name": "PROGRESS-MS 31",
        "meta_object_id": "2025-146A",
        "meta_epoch": "2025-12-10T03:42:55.481184",
        "meta_mean_motion": 15.49465664,
        "meta_eccentricity": 0.0003395,
        "meta_inclination": 51.6306,
        "meta_ra_of_asc_node": 155.2782,
        "meta_arg_of_pericenter": 228.7876,
        "meta_mean_anomaly": 131.282,
        "meta_ephemeris_type": 0,
        "meta_classification_type": "U",
        "meta_norad_cat_id": 64751,
        "meta_element_set_no": 999,
        "meta_rev_at_epoch": 675,
        "meta_bstar": 0.00027248017,
        "meta_mean_motion_dot": 0.00014837,
        "meta_mean_motion_ddot": 0,
        "tle_line1": "1 64751U 25146A   25344.15480881  .00014837  00000+0  27248-3 0  9992",
        "tle_line2": "2 64751  51.6306 155.2782 0003395 228.7876 131.2820 15.49465664  6751"
      },
      "geometry": {
        "type": "Point",
        "coordinates": [
          -133.29022788717694,
          50.46699767162851
        ]
      }
    },
    {
      "type": "Feature",
      "properties": {
        "norad_id": 64786,
        "name": "TIANZHOU-9",
        "group": "stations",
        "lat": 38.13514299373946,
        "lon": 146.82099884958973,
        "alt_km": 385.0173476822938,
        "timestamp": "2025-12-10T14:53:35.962027+00:00",
        "meta_object_name": "TIANZHOU-9",
        "meta_object_id": "2025-149A",
        "meta_epoch": "2025-12-10T06:43:57.761760",
        "meta_mean_motion": 15.59014677,
        "meta_eccentricity": 0.00088021,
        "meta_inclination": 41.4682,
        "meta_ra_of_asc_node": 31.6356,
        "meta_arg_of_pericenter": 10.5172,
        "meta_mean_anomaly": 349.5849,
        "meta_ephemeris_type": 0,
        "meta_classification_type": "U",
        "meta_norad_cat_id": 64786,
        "meta_element_set_no": 999,
        "meta_rev_at_epoch": 25530,
        "meta_bstar": 0.00043406543,
        "meta_mean_motion_dot": 0.00034646,
        "meta_mean_motion_ddot": 0,
        "tle_line1": "1 64786U 25149A   25344.28052965  .00034646  00000+0  43407-3 0  9990",
        "tle_line2": "2 64786  41.4682  31.6356 0008802  10.5172 349.5849 15.59014677255308"
      },
      "geometry": {
        "type": "Point",
        "coordinates": [
          146.82099884958973,
          38.13514299373946
        ]
      }
    },
    {
      "type": "Feature",
      "properties": {
        "norad_id": 65077,
        "name": "CREW DRAGON 11",
        "group": "stations",
        "lat": 50.4669979271066,
        "lon": -133.29022610410698,
        "alt_km": 413.30806812956234,
        "timestamp": "2025-12-10T14:53:35.962036+00:00",
        "meta_object_name": "CREW DRAGON 11",
        "meta_object_id": "2025-166A",
        "meta_epoch": "2025-12-10T03:42:55.481184",
        "meta_mean_motion": 15.49465664,
        "meta_eccentricity": 0.0003395,
        "meta_inclination": 51.6306,
        "meta_ra_of_asc_node": 155.2782,
        "meta_arg_of_pericenter": 228.7876,
        "meta_mean_anomaly": 131.282,
        "meta_ephemeris_type": 0,
        "meta_classification_type": "U",
        "meta_norad_cat_id": 65077,
        "meta_element_set_no": 999,
        "meta_rev_at_epoch": 214,
        "meta_bstar": 0.00027248017,
        "meta_mean_motion_dot": 0.00014837,
        "meta_mean_motion_ddot": 0,
        "tle_line1": "1 65077U 25166A   25344.15480881  .00014837  00000+0  27248-3 0  9996",
        "tle_line2": "2 65077  51.6306 155.2782 0003395 228.7876 131.2820 15.49465664  2142"
      },
      "geometry": {
        "type": "Point",
        "coordinates": [
          -133.29022610410698,
          50.4669979271066
        ]
      }
    },
    {
      "type": "Feature",
      "properties": {
        "norad_id": 65304,
        "name": "DRAGON CRS-33",
        "group": "stations",
        "lat": 50.46699805484599,
        "lon": -133.29022521256954,
        "alt_km": 413.3080681004385,
        "timestamp": "2025-12-10T14:53:35.962045+00:00",
        "meta_object_name": "DRAGON CRS-33",
        "meta_object_id": "2025-186A",
        "meta_epoch": "2025-12-10T03:42:55.481184",
        "meta_mean_motion": 15.49465664,
        "meta_eccentricity": 0.0003395,
        "meta_inclination": 51.6306,
        "meta_ra_of_asc_node": 155.2782,
        "meta_arg_of_pericenter": 228.7876,
        "meta_mean_anomaly": 131.282,
        "meta_ephemeris_type": 0,
        "meta_classification_type": "U",
        "meta_norad_cat_id": 65304,
        "meta_element_set_no": 999,
        "meta_rev_at_epoch": 11,
        "meta_bstar": 0.00027248017,
        "meta_mean_motion_dot": 0.00014837,
        "meta_mean_motion_ddot": 0,
        "tle_line1": "1 65304U 25186A   25344.15480881  .00014837  00000+0  27248-3 0  9991",
        "tle_line2": "2 65304  51.6306 155.2782 0003395 228.7876 131.2820 15.49465664   110"
      },
      "geometry": {
        "type": "Point",
        "coordinates": [
          -133.29022521256954,
          50.46699805484599
        ]
      }
    },
    {
      "type": "Feature",
      "properties": {
        "norad_id": 65586,
        "name": "PROGRESS-MS 32",
        "group": "stations",
        "lat": 50.46699818258519,
        "lon": -133.2902243210333,
        "alt_km": 413.30806807131194,
        "timestamp": "2025-12-10T14:53:35.962054+00:00",
        "meta_object_name": "PROGRESS-MS 32",
        "meta_object_id": "2025-204A",
        "meta_epoch": "2025-12-10T03:42:55.481184",
        "meta_mean_motion": 15.49465664,
        "meta_eccentricity": 0.0003395,
        "meta_inclination": 51.6306,
        "meta_ra_of_asc_node": 155.2782,
        "meta_arg_of_pericenter": 228.7876,
        "meta_mean_anomaly": 131.282,
        "meta_ephemeris_type": 0,
        "meta_classification_type": "U",
        "meta_norad_cat_id": 65586,
        "meta_element_set_no": 999,
        "meta_rev_at_epoch": 27,
        "meta_bstar": 0.00027248017,
        "meta_mean_motion_dot": 0.00014837,
        "meta_mean_motion_ddot": 0,
        "tle_line1": "1 65586U 25204A   25344.15480881  .00014837  00000+0  27248-3 0  9994",
        "tle_line2": "2 65586  51.6306 155.2782 0003395 228.7876 131.2820 15.49465664   279"
      },
      "geometry": {
        "type": "Point",
        "coordinates": [
          -133.2902243210333,
          50.46699818258519
        ]
      }
    },
    {
      "type": "Feature",
      "properties": {
        "norad_id": 65616,
        "name": "CYGNUS NG-23",
        "group": "stations",
        "lat": 50.46699831032421,
        "lon": -133.29022342949833,
        "alt_km": 413.3080680421908,
        "timestamp": "2025-12-10T14:53:35.962063+00:00",
        "meta_object_name": "CYGNUS NG-23",
        "meta_object_id": "2025-208A",
        "meta_epoch": "2025-12-10T03:42:55.481184",
        "meta_mean_motion": 15.49465664,
        "meta_eccentricity": 0.0003395,
        "meta_inclination": 51.6306,
        "meta_ra_of_asc_node": 155.2782,
        "meta_arg_of_pericenter": 228.7876,
        "meta_mean_anomaly": 131.282,
        "meta_ephemeris_type": 0,
        "meta_classification_type": "U",
        "meta_norad_cat_id": 65616,
        "meta_element_set_no": 999,
        "meta_rev_at_epoch": 22,
        "meta_bstar": 0.00027248017,
        "meta_mean_motion_dot": 0.00014837,
        "meta_mean_motion_ddot": 0,
        "tle_line1": "1 65616U 25208A   25344.15480881  .00014837  00000+0  27248-3 0  9992",
        "tle_line2": "2 65616  51.6306 155.2782 0003395 228.7876 131.2820 15.49465664   228"
      },
      "geometry": {
        "type": "Point",
        "coordinates": [
          -133.29022342949833,
          50.46699831032421
        ]
      }
    },
    {
      "type": "Feature",
      "properties": {
        "norad_id": 65729,
        "name": "DRAGONFLY",
        "group": "stations",
        "lat": -47.5469939001877,
        "lon": 26.63264379812453,
        "alt_km": 356.44651449578305,
        "timestamp": "2025-12-10T14:53:35.962072+00:00",
        "meta_object_name": "DRAGONFLY",
        "meta_object_id": "1998-067XH",
        "meta_epoch": "2025-12-09T11:52:26.095872",
        "meta_mean_motion": 15.70499103,
        "meta_eccentricity": 0.00065374,
        "meta_inclination": 51.6245,
        "meta_ra_of_asc_node": 152.3636,
        "meta_arg_of_pericenter": 255.9884,
        "meta_mean_anomaly": 104.0387,
        "meta_ephemeris_type": 0,
        "meta_classification_type": "U",
        "meta_norad_cat_id": 65729,
        "meta_element_set_no": 999,
        "meta_rev_at_epoch": 1265,
        "meta_bstar": 0.0014915016,
        "meta_mean_motion_dot": 0.00190953,
        "meta_mean_motion_ddot": 0,
        "tle_line1": "1 65729U 98067XH  25343.49474648  .00190953  00000+0  14915-2 0  9990",
        "tle_line2": "2 65729  51.6245 152.3636 0006537 255.9884 104.0387 15.70499103 12658"
      },
      "geometry": {
        "type": "Point",
        "coordinates": [
          26.63264379812453,
          -47.5469939001877
        ]
      }
    }
  ]
}